[{"OBJECT_NAME":"STARLINK-32159","OBJECT_ID":"2024-132R","EPOCH":"2026-03-09T08:34:27.071328","MEAN_MOTION":15.30169192,"ECCENTRICITY":0.00013406,"INCLINATION":53.161,"RA_OF_ASC_NODE":53.6754,"ARG_OF_PERICENTER":85.2183,"MEAN_ANOMALY":274.8971,"EPHEMERIS_TYPE":0,"CLASSIFICATION_TYPE":"U","NORAD_CAT_ID":60293,"ELEMENT_SET_NO":999,"REV_AT_EPOCH":9151,"BSTAR":-9.0282338e-5,"MEAN_MOTION_DOT":-3.029e-5,"MEAN_MOTION_DDOT":0},{"OBJECT_NAME":"COSMOS 1869","OBJECT_ID":"1987-062A","EPOCH":"2026-03-09T20:30:29.271744","MEAN_MOTION":15.35392408,"ECCENTRICITY":0.00185772,"INCLINATION":82.5127,"RA_OF_ASC_NODE":201.6716,"ARG_OF_PERICENTER":61.4986,"MEAN_ANOMALY":298.8125,"EPHEMERIS_TYPE":0,"CLASSIFICATION_TYPE":"U","NORAD_CAT_ID":18214,"ELEMENT_SET_NO":999,"REV_AT_EPOCH":8931,"BSTAR":0.00042037944,"MEAN_MOTION_DOT":0.00014573,"MEAN_MOTION_DDOT":0}]
